STARLINK-31630          
1 59271U 24050T   25224.28665673  .00002187  00000+0  85982-4 0  9996
2 59271  53.1607  61.1644 0001131  81.4700 278.6429 15.30188297 79824
STARLINK-31623          
1 59272U 24050U   25224.30404752  .00018973  00000+0  64340-3 0  9993
2 59272  53.1596  73.3618 0001474  75.8115 284.3049 15.30585201 79654
STARLINK-31595          
1 59273U 24050V   25224.32087773  .00001521  00000+0  63494-4 0  9997
2 59273  53.1603  73.4783 0001360  77.9984 282.1169 15.30189692 79641
STARLINK-31463          
1 59296U 24056A   25224.01896890  .00005534  00000+0  21059-3 0  9990
2 59296  43.0001 330.8678 0001026 291.4335  68.6407 15.27559037 79148
STARLINK-31487          
1 59297U 24056B   25224.00705521 -.00000613  00000+0 -12736-4 0  9998
2 59297  43.0011 335.1010 0001174 276.2497  83.8221 15.27590230 79190
STARLINK-31386          
1 59298U 24056C   25224.31601058  .00001767  00000+0  73751-4 0  9996
2 59298  43.0015 333.1158 0001509 250.4087 109.6601 15.27569118 78848
STARLINK-31409          
1 59299U 24056D   25223.60029191 -.00000753  00000+0 -17826-4 0  9997
2 59299  43.0005 330.2896 0001239 263.0830  96.9881 15.27591426 79218
STARLINK-31489          
1 59300U 24056E   25224.36597874  .00000419  00000+0  24745-4 0  9997
2 59300  43.0019 332.6279 0000852 223.9783 136.1001 15.27575587 79153
STARLINK-31502          
1 59301U 24056F   25224.55538481  .00003741  00000+0  14540-3 0  9990
2 59301  42.9981 324.5421 0001111 243.4304 116.6433 15.27581341 78992
STARLINK-31447          
1 59302U 24056G   25224.31858455  .00001253  00000+0  55087-4 0  9999
2 59302  43.0039 333.1395 0001658 277.0277  83.0386 15.27564737 79145
STARLINK-31504          
1 59303U 24056H   25223.99936430 -.00000256  00000+0  21937-6 0  9995
2 59303  43.0023 335.0359 0000978 272.2611  87.8129 15.27579462 79095
STARLINK-31474          
1 59304U 24056J   25223.60544027 -.00001870  00000+0 -58454-4 0  9997
2 59304  43.0024 330.3194 0001854 285.3960  74.6686 15.27574414 78901
STARLINK-31500          
1 59305U 24056K   25223.60318471  .00005210  00000+0  19872-3 0  9990
2 59305  43.0001 337.2269 0001142 288.3058  71.7669 15.27576092 78977
STARLINK-31480          
1 59306U 24056L   25224.30830102  .00001015  00000+0  46413-4 0  9990
2 59306  43.0037 333.0531 0002367 273.9093  86.1488 15.27575895 78982
STARLINK-31282          
1 59307U 24056M   25223.61089093 -.00002121  00000+0 -67603-4 0  9994
2 59307  43.0015 337.2843 0000563 289.5986  70.4805 15.27575870 79030
STARLINK-31485          
1 59308U 24056N   25223.61860457 -.00003282  00000+0 -10979-3 0  9998
2 59308  43.0017 337.3407 0001163 259.2371 100.8350 15.27580574 79039
STARLINK-31455          
1 59309U 24056P   25224.01140466  .00003617  00000+0  14098-3 0  9991
2 59309  43.0035 331.6736 0001378 261.8342  98.2353 15.27561176 78924
