[{"OBJECT_NAME":"STARLINK-31630","OBJECT_ID":"2024-050T","EPOCH":"2025-08-12T06:52:47.141472","MEAN_MOTION":15.30188297,"ECCENTRICITY":0.0001131,"INCLINATION":53.1607,"RA_OF_ASC_NODE":61.1644,"ARG_OF_PERICENTER":81.47,"MEAN_ANOMALY":278.6429,"EPHEMERIS_TYPE":0,"CLASSIFICATION_TYPE":"U","NORAD_CAT_ID":59271,"ELEMENT_SET_NO":999,"REV_AT_EPOCH":7982,"BSTAR":8.5982e-5,"MEAN_MOTION_DOT":2.187e-5,"MEAN_MOTION_DDOT":0},{"OBJECT_NAME":"STARLINK-31623","OBJECT_ID":"2024-050U","EPOCH":"2025-08-12T07:17:49.705728","MEAN_MOTION":15.30585201,"ECCENTRICITY":0.0001474,"INCLINATION":53.1596,"RA_OF_ASC_NODE":73.3618,"ARG_OF_PERICENTER":75.8115,"MEAN_ANOMALY":284.3049,"EPHEMERIS_TYPE":0,"CLASSIFICATION_TYPE":"U","NORAD_CAT_ID":59272,"ELEMENT_SET_NO":999,"REV_AT_EPOCH":7965,"BSTAR":0.0006434,"MEAN_MOTION_DOT":0.00018973,"MEAN_MOTION_DDOT":0},{"OBJECT_NAME":"STARLINK-31595","OBJECT_ID":"2024-050V","EPOCH":"2025-08-12T07:42:03.835872","MEAN_MOTION":15.30189692,"ECCENTRICITY":0.000136,"INCLINATION":53.1603,"RA_OF_ASC_NODE":73.4783,"ARG_OF_PERICENTER":77.9984,"MEAN_ANOMALY":282.1169,"EPHEMERIS_TYPE":0,"CLASSIFICATION_TYPE":"U","NORAD_CAT_ID":59273,"ELEMENT_SET_NO":999,"REV_AT_EPOCH":7964,"BSTAR":6.3494e-5,"MEAN_MOTION_DOT":1.521e-5,"MEAN_MOTION_DDOT":0},{"OBJECT_NAME":"STARLINK-31463","OBJECT_ID":"2024-056A","EPOCH":"2025-08-12T00:27:18.912960","MEAN_MOTION":15.27559037,"ECCENTRICITY":0.0001026,"INCLINATION":43.0001,"RA_OF_ASC_NODE":330.8678,"ARG_OF_PERICENTER":291.4335,"MEAN_ANOMALY":68.6407,"EPHEMERIS_TYPE":0,"CLASSIFICATION_TYPE":"U","NORAD_CAT_ID":59296,"ELEMENT_SET_NO":999,"REV_AT_EPOCH":7914,"BSTAR":0.00021059,"MEAN_MOTION_DOT":5.534e-5,"MEAN_MOTION_DDOT":0},{"OBJECT_NAME":"STARLINK-31487","OBJECT_ID":"2024-056B","EPOCH":"2025-08-12T00:10:09.570144","MEAN_MOTION":15.2759023,"ECCENTRICITY":0.0001174,"INCLINATION":43.0011,"RA_OF_ASC_NODE":335.101,"ARG_OF_PERICENTER":276.2497,"MEAN_ANOMALY":83.8221,"EPHEMERIS_TYPE":0,"CLASSIFICATION_TYPE":"U","NORAD_CAT_ID":59297,"ELEMENT_SET_NO":999,"REV_AT_EPOCH":7919,"BSTAR":-1.2736e-5,"MEAN_MOTION_DOT":-6.13e-6,"MEAN_MOTION_DDOT":0},{"OBJECT_NAME":"STARLINK-31386","OBJECT_ID":"2024-056C","EPOCH":"2025-08-12T07:35:03.314112","MEAN_MOTION":15.27569118,"ECCENTRICITY":0.0001509,"INCLINATION":43.0015,"RA_OF_ASC_NODE":333.1158,"ARG_OF_PERICENTER":250.4087,"MEAN_ANOMALY":109.6601,"EPHEMERIS_TYPE":0,"CLASSIFICATION_TYPE":"U","NORAD_CAT_ID":59298,"ELEMENT_SET_NO":999,"REV_AT_EPOCH":7884,"BSTAR":7.3751e-5,"MEAN_MOTION_DOT":1.767e-5,"MEAN_MOTION_DDOT":0},{"OBJECT_NAME":"STARLINK-31409","OBJECT_ID":"2024-056D","EPOCH":"2025-08-11T14:24:25.221024","MEAN_MOTION":15.27591426,"ECCENTRICITY":0.0001239,"INCLINATION":43.0005,"RA_OF_ASC_NODE":330.2896,"ARG_OF_PERICENTER":263.083,"MEAN_ANOMALY":96.9881,"EPHEMERIS_TYPE":0,"CLASSIFICATION_TYPE":"U","NORAD_CAT_ID":59299,"ELEMENT_SET_NO":999,"REV_AT_EPOCH":7921,"BSTAR":-1.7826e-5,"MEAN_MOTION_DOT":-7.53e-6,"MEAN_MOTION_DDOT":0},{"OBJECT_NAME":"STARLINK-31489","OBJECT_ID":"2024-056E","EPOCH":"2025-08-12T08:47:00.563136","MEAN_MOTION":15.27575587,"ECCENTRICITY":8.52e-5,"INCLINATION":43.0019,"RA_OF_ASC_NODE":332.6279,"ARG_OF_PERICENTER":223.9783,"MEAN_ANOMALY":136.1001,"EPHEMERIS_TYPE":0,"CLASSIFICATION_TYPE":"U","NORAD_CAT_ID":59300,"ELEMENT_SET_NO":999,"REV_AT_EPOCH":7915,"BSTAR":2.4745e-5,"MEAN_MOTION_DOT":4.19e-6,"MEAN_MOTION_DDOT":0},{"OBJECT_NAME":"STARLINK-31502","OBJECT_ID":"2024-056F","EPOCH":"2025-08-12T13:19:45.247584","MEAN_MOTION":15.27581341,"ECCENTRICITY":0.0001111,"INCLINATION":42.9981,"RA_OF_ASC_NODE":324.5421,"ARG_OF_PERICENTER":243.4304,"MEAN_ANOMALY":116.6433,"EPHEMERIS_TYPE":0,"CLASSIFICATION_TYPE":"U","NORAD_CAT_ID":59301,"ELEMENT_SET_NO":999,"REV_AT_EPOCH":7899,"BSTAR":0.0001454,"MEAN_MOTION_DOT":3.741e-5,"MEAN_MOTION_DDOT":0},{"OBJECT_NAME":"STARLINK-31447","OBJECT_ID":"2024-056G","EPOCH":"2025-08-12T07:38:45.705120","MEAN_MOTION":15.27564737,"ECCENTRICITY":0.0001658,"INCLINATION":43.0039,"RA_OF_ASC_NODE":333.1395,"ARG_OF_PERICENTER":277.0277,"MEAN_ANOMALY":83.0386,"EPHEMERIS_TYPE":0,"CLASSIFICATION_TYPE":"U","NORAD_CAT_ID":59302,"ELEMENT_SET_NO":999,"REV_AT_EPOCH":7914,"BSTAR":5.5087e-5,"MEAN_MOTION_DOT":1.253e-5,"MEAN_MOTION_DDOT":0},{"OBJECT_NAME":"STARLINK-31504","OBJECT_ID":"2024-056H","EPOCH":"2025-08-11T23:59:05.075520","MEAN_MOTION":15.27579462,"ECCENTRICITY":9.78e-5,"INCLINATION":43.0023,"RA_OF_ASC_NODE":335.0359,"ARG_OF_PERICENTER":272.2611,"MEAN_ANOMALY":87.8129,"EPHEMERIS_TYPE":0,"CLASSIFICATION_TYPE":"U","NORAD_CAT_ID":59303,"ELEMENT_SET_NO":999,"REV_AT_EPOCH":7909,"BSTAR":2.1937e-7,"MEAN_MOTION_DOT":-2.56e-6,"MEAN_MOTION_DDOT":0},{"OBJECT_NAME":"STARLINK-31474","OBJECT_ID":"2024-056J","EPOCH":"2025-08-11T14:31:50.039328","MEAN_MOTION":15.27574414,"ECCENTRICITY":0.0001854,"INCLINATION":43.0024,"RA_OF_ASC_NODE":330.3194,"ARG_OF_PERICENTER":285.396,"MEAN_ANOMALY":74.6686,"EPHEMERIS_TYPE":0,"CLASSIFICATION_TYPE":"U","NORAD_CAT_ID":59304,"ELEMENT_SET_NO":999,"REV_AT_EPOCH":7890,"BSTAR":-5.8454e-5,"MEAN_MOTION_DOT":-1.87e-5,"MEAN_MOTION_DDOT":0},{"OBJECT_NAME":"STARLINK-31500","OBJECT_ID":"2024-056K","EPOCH":"2025-08-11T14:28:35.158944","MEAN_MOTION":15.27576092,"ECCENTRICITY":0.0001142,"INCLINATION":43.0001,"RA_OF_ASC_NODE":337.2269,"ARG_OF_PERICENTER":288.3058,"MEAN_ANOMALY":71.7669,"EPHEMERIS_TYPE":0,"CLASSIFICATION_TYPE":"U","NORAD_CAT_ID":59305,"ELEMENT_SET_NO":999,"REV_AT_EPOCH":7897,"BSTAR":0.00019872,"MEAN_MOTION_DOT":5.21e-5,"MEAN_MOTION_DDOT":0},{"OBJECT_NAME":"STARLINK-31480","OBJECT_ID":"2024-056L","EPOCH":"2025-08-12T07:23:57.208128","MEAN_MOTION":15.27575895,"ECCENTRICITY":0.0002367,"INCLINATION":43.0037,"RA_OF_ASC_NODE":333.0531,"ARG_OF_PERICENTER":273.9093,"MEAN_ANOMALY":86.1488,"EPHEMERIS_TYPE":0,"CLASSIFICATION_TYPE":"U","NORAD_CAT_ID":59306,"ELEMENT_SET_NO":999,"REV_AT_EPOCH":7898,"BSTAR":4.6413e-5,"MEAN_MOTION_DOT":1.015e-5,"MEAN_MOTION_DDOT":0},{"OBJECT_NAME":"STARLINK-31282","OBJECT_ID":"2024-056M","EPOCH":"2025-08-11T14:39:40.976352","MEAN_MOTION":15.2757587,"ECCENTRICITY":5.63e-5,"INCLINATION":43.0015,"RA_OF_ASC_NODE":337.2843,"ARG_OF_PERICENTER":289.5986,"MEAN_ANOMALY":70.4805,"EPHEMERIS_TYPE":0,"CLASSIFICATION_TYPE":"U","NORAD_CAT_ID":59307,"ELEMENT_SET_NO":999,"REV_AT_EPOCH":7903,"BSTAR":-6.7603e-5,"MEAN_MOTION_DOT":-2.121e-5,"MEAN_MOTION_DDOT":0},{"OBJECT_NAME":"STARLINK-31485","OBJECT_ID":"2024-056N","EPOCH":"2025-08-11T14:50:47.434848","MEAN_MOTION":15.27580574,"ECCENTRICITY":0.0001163,"INCLINATION":43.0017,"RA_OF_ASC_NODE":337.3407,"ARG_OF_PERICENTER":259.2371,"MEAN_ANOMALY":100.835,"EPHEMERIS_TYPE":0,"CLASSIFICATION_TYPE":"U","NORAD_CAT_ID":59308,"ELEMENT_SET_NO":999,"REV_AT_EPOCH":7903,"BSTAR":-0.00010979,"MEAN_MOTION_DOT":-3.282e-5,"MEAN_MOTION_DDOT":0},{"OBJECT_NAME":"STARLINK-31455","OBJECT_ID":"2024-056P","EPOCH":"2025-08-12T00:16:25.362624","MEAN_MOTION":15.27561176,"ECCENTRICITY":0.0001378,"INCLINATION":43.0035,"RA_OF_ASC_NODE":331.6736,"ARG_OF_PERICENTER":261.8342,"MEAN_ANOMALY":98.2353,"EPHEMERIS_TYPE":0,"CLASSIFICATION_TYPE":"U","NORAD_CAT_ID":59309,"ELEMENT_SET_NO":999,"REV_AT_EPOCH":7892,"BSTAR":0.00014098,"MEAN_MOTION_DOT":3.617e-5,"MEAN_MOTION_DDOT":0}]
